[
    {
        "Altitude(m)": 604969.0890744418,
        "Argument of Periapsis(deg)": 0.0,
        "Eccentricity": 0.0,
        "Inclination(deg)": 60.0,
        "Latitude(deg)": -0.0926090195662645,
        "Longitude(deg)": 169.97752745993643,
        "Mean Anomaly(deg)": 0.0,
        "RAAN(deg)": 270.0,
        "Satellite Name": "Test1 1188",
        "Satellite Number": 1188,
        "Semi-Major Axis(m)": 6980739.136638005,
        "Time(s)": 0
    },
    {
        "Altitude(m)": 604900.0289295051,
        "Argument of Periapsis(deg)": 0.00010418945913296404,
        "Eccentricity": 0.0,
        "Inclination(deg)": 60.0,
        "Latitude(deg)": 0.4478164501683802,
        "Longitude(deg)": 170.245651337082,
        "Mean Anomaly(deg)": 0.620106145461853,
        "RAAN(deg)": 269.99957995086027,
        "Satellite Name": "Test1 1188",
        "Satellite Number": 1188,
        "Semi-Major Axis(m)": 6980739.136638005,
        "Time(s)": 10
    },
    {
        "Altitude(m)": 604834.1968463176,
        "Argument of Periapsis(deg)": 0.0002083789182659281,
        "Eccentricity": 0.0,
        "Inclination(deg)": 60.0,
        "Latitude(deg)": 0.9882386926690774,
        "Longitude(deg)": 170.51382662985367,
        "Mean Anomaly(deg)": 1.240212290923655,
        "RAAN(deg)": 269.9991599017205,
        "Satellite Name": "Test1 1188",
        "Satellite Number": 1188,
        "Semi-Major Axis(m)": 6980739.136638005,
        "Time(s)": 20
    },
    {
        "Altitude(m)": 604771.599203736,
        "Argument of Periapsis(deg)": 0.00031256837739889213,
        "Eccentricity": 0.0,
        "Inclination(deg)": 60.0,
        "Latitude(deg)": 1.528640621836331,
        "Longitude(deg)": 170.78210772769003,
        "Mean Anomaly(deg)": 1.8603184363855083,
        "RAAN(deg)": 269.9987398525808,
        "Satellite Name": "Test1 1188",
        "Satellite Number": 1188,
        "Semi-Major Axis(m)": 6980739.136638005,
        "Time(s)": 30
    },
    {
        "Altitude(m)": 604712.2408507149,
        "Argument of Periapsis(deg)": 0.0004167578365318562,
        "Eccentricity": 0.0,
        "Inclination(deg)": 60.0,
        "Latitude(deg)": 2.069005130106935,
        "Longitude(deg)": 171.0505495885734,
        "Mean Anomaly(deg)": 2.48042458184731,
        "RAAN(deg)": 269.99831980344106,
        "Satellite Name": "Test1 1188",
        "Satellite Number": 1188,
        "Semi-Major Axis(m)": 6980739.136638005,
        "Time(s)": 40
    },
    {
        "Altitude(m)": 604656.1251067598,
        "Argument of Periapsis(deg)": 0.0005209472956648203,
        "Eccentricity": 0.0,
        "Inclination(deg)": 60.0,
        "Latitude(deg)": 2.6093150785449466,
        "Longitude(deg)": 171.31920676246503,
        "Mean Anomaly(deg)": 3.1005307273091636,
        "RAAN(deg)": 269.9978997543013,
        "Satellite Name": "Test1 1188",
        "Satellite Number": 1188,
        "Semi-Major Axis(m)": 6980739.136638005,
        "Time(s)": 50
    },
    {
        "Altitude(m)": 604603.2537631354,
        "Argument of Periapsis(deg)": 0.0006251367547977843,
        "Eccentricity": 0.0,
        "Inclination(deg)": 60.0,
        "Latitude(deg)": 3.149553286889441,
        "Longitude(deg)": 171.58813392770202,
        "Mean Anomaly(deg)": 3.7206368727709656,
        "RAAN(deg)": 269.99747970516154,
        "Satellite Name": "Test1 1188",
        "Satellite Number": 1188,
        "Semi-Major Axis(m)": 6980739.136638005,
        "Time(s)": 60
    },
    {
        "Altitude(m)": 604553.6270847929,
        "Argument of Periapsis(deg)": 0.0007293262139307483,
        "Eccentricity": 0.0,
        "Inclination(deg)": 60.0,
        "Latitude(deg)": 3.6897025235497525,
        "Longitude(deg)": 171.85738642751278,
        "Mean Anomaly(deg)": 4.340743018232819,
        "RAAN(deg)": 269.9970596560218,
        "Satellite Name": "Test1 1188",
        "Satellite Number": 1188,
        "Semi-Major Axis(m)": 6980739.136638005,
        "Time(s)": 70
    },
    {
        "Altitude(m)": 604507.2438131021,
        "Argument of Periapsis(deg)": 0.0008335156730637124,
        "Eccentricity": 0.0,
        "Inclination(deg)": 60.0,
        "Latitude(deg)": 4.2297454955359655,
        "Longitude(deg)": 172.12701929380566,
        "Mean Anomaly(deg)": 4.96084916369462,
        "RAAN(deg)": 269.99663960688207,
        "Satellite Name": "Test1 1188",
        "Satellite Number": 1188,
        "Semi-Major Axis(m)": 6980739.136638005,
        "Time(s)": 80
    },
    {
        "Altitude(m)": 604464.1011692826,
        "Argument of Periapsis(deg)": 0.0009377051321966765,
        "Eccentricity": 0.0,
        "Inclination(deg)": 60.0,
        "Latitude(deg)": 4.769664838307081,
        "Longitude(deg)": 172.39708778400703,
        "Mean Anomaly(deg)": 5.580955309156474,
        "RAAN(deg)": 269.99621955774234,
        "Satellite Name": "Test1 1188",
        "Satellite Number": 1188,
        "Semi-Major Axis(m)": 6980739.136638005,
        "Time(s)": 90
    },
    {
        "Altitude(m)": 604424.1948586198,
        "Argument of Periapsis(deg)": 0.0010418945913296407,
        "Eccentricity": 0.0,
        "Inclination(deg)": 60.0,
        "Latitude(deg)": 5.309443105524416,
        "Longitude(deg)": 172.66764791810445,
        "Mean Anomaly(deg)": 6.201061454618327,
        "RAAN(deg)": 269.99579950860254,
        "Satellite Name": "Test1 1188",
        "Satellite Number": 1188,
        "Semi-Major Axis(m)": 6980739.136638005,
        "Time(s)": 100
    },
    {
        "Altitude(m)": 604387.5190753953,
        "Argument of Periapsis(deg)": 0.0011460840504626045,
        "Eccentricity": 0.0,
        "Inclination(deg)": 60.0,
        "Latitude(deg)": 5.849062758700242,
        "Longitude(deg)": 172.9387555030497,
        "Mean Anomaly(deg)": 6.821167600080129,
        "RAAN(deg)": 269.99537945946287,
        "Satellite Name": "Test1 1188",
        "Satellite Number": 1188,
        "Semi-Major Axis(m)": 6980739.136638005,
        "Time(s)": 110
    },
    {
        "Altitude(m)": 604354.0665085904,
        "Argument of Periapsis(deg)": 0.0012502735095955685,
        "Eccentricity": 0.0,
        "Inclination(deg)": 60.0,
        "Latitude(deg)": 6.3885061567216095,
        "Longitude(deg)": 173.2104666702991,
        "Mean Anomaly(deg)": 7.441273745541982,
        "RAAN(deg)": 269.99495941032313,
        "Satellite Name": "Test1 1188",
        "Satellite Number": 1188,
        "Semi-Major Axis(m)": 6980739.136638005,
        "Time(s)": 120
    },
    {
        "Altitude(m)": 604323.8283483034,
        "Argument of Periapsis(deg)": 0.0013544629687285324,
        "Eccentricity": 0.0,
        "Inclination(deg)": 60.0,
        "Latitude(deg)": 6.927755545237539,
        "Longitude(deg)": 173.48283841364577,
        "Mean Anomaly(deg)": 8.061379891003783,
        "RAAN(deg)": 269.99453936118334,
        "Satellite Name": "Test1 1188",
        "Satellite Number": 1188,
        "Semi-Major Axis(m)": 6980739.136638005,
        "Time(s)": 130
    },
    {
        "Altitude(m)": 604296.7942929091,
        "Argument of Periapsis(deg)": 0.0014586524278614966,
        "Eccentricity": 0.0,
        "Inclination(deg)": 60.0,
        "Latitude(deg)": 7.4667930458987914,
        "Longitude(deg)": 173.7559276145007,
        "Mean Anomaly(deg)": 8.681486036465637,
        "RAAN(deg)": 269.9941193120436,
        "Satellite Name": "Test1 1188",
        "Satellite Number": 1188,
        "Semi-Major Axis(m)": 6980739.136638005,
        "Time(s)": 140
    },
    {
        "Altitude(m)": 604272.9525569557,
        "Argument of Periapsis(deg)": 0.0015628418869944607,
        "Eccentricity": 0.0,
        "Inclination(deg)": 60.0,
        "Latitude(deg)": 8.005600645428828,
        "Longitude(deg)": 174.02979158039759,
        "Mean Anomaly(deg)": 9.30159218192744,
        "RAAN(deg)": 269.9936992629039,
        "Satellite Name": "Test1 1188",
        "Satellite Number": 1188,
        "Semi-Major Axis(m)": 6980739.136638005,
        "Time(s)": 150
    },
    {
        "Altitude(m)": 604252.2898797852,
        "Argument of Periapsis(deg)": 0.0016670313461274247,
        "Eccentricity": 0.0,
        "Inclination(deg)": 60.0,
        "Latitude(deg)": 8.544160184515004,
        "Longitude(deg)": 174.30448858387908,
        "Mean Anomaly(deg)": 9.921698327389292,
        "RAAN(deg)": 269.99327921376414,
        "Satellite Name": "Test1 1188",
        "Satellite Number": 1188,
        "Semi-Major Axis(m)": 6980739.136638005,
        "Time(s)": 160
    },
    {
        "Altitude(m)": 604234.791534869,
        "Argument of Periapsis(deg)": 0.0017712208052603888,
        "Eccentricity": 0.0,
        "Inclination(deg)": 60.0,
        "Latitude(deg)": 9.08245334650624,
        "Longitude(deg)": 174.5800768889191,
        "Mean Anomaly(deg)": 10.541804472851094,
        "RAAN(deg)": 269.9928591646244,
        "Satellite Name": "Test1 1188",
        "Satellite Number": 1188,
        "Semi-Major Axis(m)": 6980739.136638005,
        "Time(s)": 170
    },
    {
        "Altitude(m)": 604220.4413398666,
        "Argument of Periapsis(deg)": 0.001875410264393353,
        "Eccentricity": 0.0,
        "Inclination(deg)": 60.0,
        "Latitude(deg)": 9.620461645897404,
        "Longitude(deg)": 174.85661529065953,
        "Mean Anomaly(deg)": 11.161910618312948,
        "RAAN(deg)": 269.9924391154846,
        "Satellite Name": "Test1 1188",
        "Satellite Number": 1188,
        "Semi-Major Axis(m)": 6980739.136638005,
        "Time(s)": 180
    },
    {
        "Altitude(m)": 604209.2216673768,
        "Argument of Periapsis(deg)": 0.0019795997235263173,
        "Eccentricity": 0.0,
        "Inclination(deg)": 60.0,
        "Latitude(deg)": 10.15816641658601,
        "Longitude(deg)": 175.13416365561494,
        "Mean Anomaly(deg)": 11.782016763774802,
        "RAAN(deg)": 269.99201906634494,
        "Satellite Name": "Test1 1188",
        "Satellite Number": 1188,
        "Semi-Major Axis(m)": 6980739.136638005,
        "Time(s)": 190
    }
]